STARLINK-34528          
1 64479U 25133H   26085.82442381  .00026248  00000+0  89497-3 0  9998
2 64479  53.1600  37.0804 0001259  99.8273 260.2870 15.30209309 43794
STARLINK-34518          
1 64480U 25133J   26085.09962801  .00020168  00000+0  69096-3 0  9991
2 64480  53.1604  40.3794 0001319 112.9909 247.1231 15.30211757 43543
STARLINK-34526          
1 64481U 25133K   26085.29240628  .00017424  00000+0  59904-3 0  9998
2 64481  53.1597  39.4480 0001158  85.3484 274.7649 15.30199436 43625
STARLINK-34527          
1 64482U 25133L   26085.28290921  .00035061  00000+0  11901-2 0  9990
2 64482  53.1615  39.3879 0001268  71.9443 288.1696 15.30207589 43738
STARLINK-34420          
1 64483U 25133M   26085.27657558  .00023126  00000+0  79017-3 0  9995
2 64483  53.1612  39.3458 0001351  84.8223 275.2932 15.30213751 43739
STARLINK-34509          
1 64484U 25133N   26085.86135980  .00034904  00000+0  11845-2 0  9991
2 64484  53.1614  37.3072 0001313  85.5859 274.5292 15.30215359 43819
STARLINK-34409          
1 64485U 25133P   26085.85924112  .00037358  00000+0  12657-2 0  9992
2 64485  53.1617  37.2931 0001468  48.0499 312.0626 15.30236853 43812
STARLINK-34520          
1 64486U 25133Q   26085.26824498  .00037732  00000+0  12787-2 0  9994
2 64486  53.1618  40.0036 0000943  96.5630 263.5478 15.30223704 43720
STARLINK-34477          
1 64487U 25133R   26085.26508254  .00012915  00000+0  44732-3 0  9996
2 64487  53.1616  39.9827 0001466  81.2661 278.8506 15.30206817 43716
STARLINK-34217          
1 64488U 25133S   26085.26191654  .00022918  00000+0  78322-3 0  9995
2 64488  53.1620  39.9638 0001232  80.9756 279.1384 15.30212598 43614
STARLINK-34307          
1 64489U 25133T   26085.91190059  .00028772  00000+0  97949-3 0  9996
2 64489  53.1615  36.9081 0001500 100.8309 259.2861 15.30209597 43807
STARLINK-34505          
1 64490U 25133U   26085.25558699  .00018314  00000+0  62878-3 0  9997
2 64490  53.1619  39.9244 0001312  83.0006 277.1144 15.30207343 43703
STARLINK-34530          
1 64491U 25133V   26085.25241992  .00022366  00000+0  76512-3 0  9995
2 64491  53.1606  39.9032 0001506  60.4269 299.6881 15.30194459 43700
STARLINK-34522          
1 64492U 25133W   26085.24925323  .00022784  00000+0  77870-3 0  9994
2 64492  53.1605  39.8838 0000854  97.6134 262.4963 15.30214071 43725
STARLINK-34462          
1 64493U 25133X   26085.24608802  .00013983  00000+0  48316-3 0  9999
2 64493  53.1608  39.8654 0001546  66.7518 293.3645 15.30211895 43728
STARLINK-34226          
1 64494U 25133Y   26085.30824039  .00020737  00000+0  70939-3 0  9990
2 64494  53.1604  39.5423 0001391  91.7385 268.3775 15.30241840 43565
