[{"OBJECT_NAME":"STARLINK-34528","OBJECT_ID":"2025-133H","EPOCH":"2026-03-26T19:47:10.217184","MEAN_MOTION":15.30209309,"ECCENTRICITY":0.0001259,"INCLINATION":53.16,"RA_OF_ASC_NODE":37.0804,"ARG_OF_PERICENTER":99.8273,"MEAN_ANOMALY":260.287,"EPHEMERIS_TYPE":0,"CLASSIFICATION_TYPE":"U","NORAD_CAT_ID":64479,"ELEMENT_SET_NO":999,"REV_AT_EPOCH":4379,"BSTAR":0.00089497,"MEAN_MOTION_DOT":0.00026248,"MEAN_MOTION_DDOT":0},{"OBJECT_NAME":"STARLINK-34518","OBJECT_ID":"2025-133J","EPOCH":"2026-03-26T02:23:27.860064","MEAN_MOTION":15.30211757,"ECCENTRICITY":0.00013197,"INCLINATION":53.1604,"RA_OF_ASC_NODE":40.3794,"ARG_OF_PERICENTER":112.9909,"MEAN_ANOMALY":247.1231,"EPHEMERIS_TYPE":0,"CLASSIFICATION_TYPE":"U","NORAD_CAT_ID":64480,"ELEMENT_SET_NO":999,"REV_AT_EPOCH":4354,"BSTAR":0.0006909588,"MEAN_MOTION_DOT":0.00020168,"MEAN_MOTION_DDOT":0},{"OBJECT_NAME":"STARLINK-34526","OBJECT_ID":"2025-133K","EPOCH":"2026-03-26T07:01:03.902592","MEAN_MOTION":15.30199436,"ECCENTRICITY":0.0001158,"INCLINATION":53.1597,"RA_OF_ASC_NODE":39.448,"ARG_OF_PERICENTER":85.3484,"MEAN_ANOMALY":274.7649,"EPHEMERIS_TYPE":0,"CLASSIFICATION_TYPE":"U","NORAD_CAT_ID":64481,"ELEMENT_SET_NO":999,"REV_AT_EPOCH":4362,"BSTAR":0.00059904,"MEAN_MOTION_DOT":0.00017424,"MEAN_MOTION_DDOT":0},{"OBJECT_NAME":"STARLINK-34527","OBJECT_ID":"2025-133L","EPOCH":"2026-03-26T06:47:23.355744","MEAN_MOTION":15.30207589,"ECCENTRICITY":0.0001268,"INCLINATION":53.1615,"RA_OF_ASC_NODE":39.3879,"ARG_OF_PERICENTER":71.9443,"MEAN_ANOMALY":288.1696,"EPHEMERIS_TYPE":0,"CLASSIFICATION_TYPE":"U","NORAD_CAT_ID":64482,"ELEMENT_SET_NO":999,"REV_AT_EPOCH":4373,"BSTAR":0.0011901,"MEAN_MOTION_DOT":0.00035061,"MEAN_MOTION_DDOT":0},{"OBJECT_NAME":"STARLINK-34420","OBJECT_ID":"2025-133M","EPOCH":"2026-03-26T06:38:16.130112","MEAN_MOTION":15.30213751,"ECCENTRICITY":0.0001351,"INCLINATION":53.1612,"RA_OF_ASC_NODE":39.3458,"ARG_OF_PERICENTER":84.8223,"MEAN_ANOMALY":275.2932,"EPHEMERIS_TYPE":0,"CLASSIFICATION_TYPE":"U","NORAD_CAT_ID":64483,"ELEMENT_SET_NO":999,"REV_AT_EPOCH":4373,"BSTAR":0.00079017,"MEAN_MOTION_DOT":0.00023126,"MEAN_MOTION_DDOT":0},{"OBJECT_NAME":"STARLINK-34509","OBJECT_ID":"2025-133N","EPOCH":"2026-03-26T20:40:21.486720","MEAN_MOTION":15.30215359,"ECCENTRICITY":0.0001313,"INCLINATION":53.1614,"RA_OF_ASC_NODE":37.3072,"ARG_OF_PERICENTER":85.5859,"MEAN_ANOMALY":274.5292,"EPHEMERIS_TYPE":0,"CLASSIFICATION_TYPE":"U","NORAD_CAT_ID":64484,"ELEMENT_SET_NO":999,"REV_AT_EPOCH":4381,"BSTAR":0.0011845,"MEAN_MOTION_DOT":0.00034904,"MEAN_MOTION_DDOT":0},{"OBJECT_NAME":"STARLINK-34409","OBJECT_ID":"2025-133P","EPOCH":"2026-03-26T20:37:18.432768","MEAN_MOTION":15.30236853,"ECCENTRICITY":0.0001468,"INCLINATION":53.1617,"RA_OF_ASC_NODE":37.2931,"ARG_OF_PERICENTER":48.0499,"MEAN_ANOMALY":312.0626,"EPHEMERIS_TYPE":0,"CLASSIFICATION_TYPE":"U","NORAD_CAT_ID":64485,"ELEMENT_SET_NO":999,"REV_AT_EPOCH":4381,"BSTAR":0.0012657,"MEAN_MOTION_DOT":0.00037358,"MEAN_MOTION_DDOT":0},{"OBJECT_NAME":"STARLINK-34520","OBJECT_ID":"2025-133Q","EPOCH":"2026-03-26T06:26:16.366272","MEAN_MOTION":15.30223704,"ECCENTRICITY":9.43e-5,"INCLINATION":53.1618,"RA_OF_ASC_NODE":40.0036,"ARG_OF_PERICENTER":96.563,"MEAN_ANOMALY":263.5478,"EPHEMERIS_TYPE":0,"CLASSIFICATION_TYPE":"U","NORAD_CAT_ID":64486,"ELEMENT_SET_NO":999,"REV_AT_EPOCH":4372,"BSTAR":0.0012787,"MEAN_MOTION_DOT":0.00037732,"MEAN_MOTION_DDOT":0},{"OBJECT_NAME":"STARLINK-34477","OBJECT_ID":"2025-133R","EPOCH":"2026-03-26T06:21:43.131456","MEAN_MOTION":15.30206817,"ECCENTRICITY":0.0001466,"INCLINATION":53.1616,"RA_OF_ASC_NODE":39.9827,"ARG_OF_PERICENTER":81.2661,"MEAN_ANOMALY":278.8506,"EPHEMERIS_TYPE":0,"CLASSIFICATION_TYPE":"U","NORAD_CAT_ID":64487,"ELEMENT_SET_NO":999,"REV_AT_EPOCH":4371,"BSTAR":0.00044732,"MEAN_MOTION_DOT":0.00012915,"MEAN_MOTION_DDOT":0},{"OBJECT_NAME":"STARLINK-34217","OBJECT_ID":"2025-133S","EPOCH":"2026-03-26T06:17:09.589056","MEAN_MOTION":15.30212598,"ECCENTRICITY":0.0001232,"INCLINATION":53.162,"RA_OF_ASC_NODE":39.9638,"ARG_OF_PERICENTER":80.9756,"MEAN_ANOMALY":279.1384,"EPHEMERIS_TYPE":0,"CLASSIFICATION_TYPE":"U","NORAD_CAT_ID":64488,"ELEMENT_SET_NO":999,"REV_AT_EPOCH":4361,"BSTAR":0.00078322,"MEAN_MOTION_DOT":0.00022918,"MEAN_MOTION_DDOT":0},{"OBJECT_NAME":"STARLINK-34307","OBJECT_ID":"2025-133T","EPOCH":"2026-03-26T21:53:08.210976","MEAN_MOTION":15.30209597,"ECCENTRICITY":0.00015,"INCLINATION":53.1615,"RA_OF_ASC_NODE":36.9081,"ARG_OF_PERICENTER":100.8309,"MEAN_ANOMALY":259.2861,"EPHEMERIS_TYPE":0,"CLASSIFICATION_TYPE":"U","NORAD_CAT_ID":64489,"ELEMENT_SET_NO":999,"REV_AT_EPOCH":4380,"BSTAR":0.00097949,"MEAN_MOTION_DOT":0.00028772,"MEAN_MOTION_DDOT":0},{"OBJECT_NAME":"STARLINK-34505","OBJECT_ID":"2025-133U","EPOCH":"2026-03-26T06:08:02.715936","MEAN_MOTION":15.30207343,"ECCENTRICITY":0.0001312,"INCLINATION":53.1619,"RA_OF_ASC_NODE":39.9244,"ARG_OF_PERICENTER":83.0006,"MEAN_ANOMALY":277.1144,"EPHEMERIS_TYPE":0,"CLASSIFICATION_TYPE":"U","NORAD_CAT_ID":64490,"ELEMENT_SET_NO":999,"REV_AT_EPOCH":4370,"BSTAR":0.00062878,"MEAN_MOTION_DOT":0.00018314,"MEAN_MOTION_DDOT":0},{"OBJECT_NAME":"STARLINK-34530","OBJECT_ID":"2025-133V","EPOCH":"2026-03-26T06:03:29.081088","MEAN_MOTION":15.30194459,"ECCENTRICITY":0.0001506,"INCLINATION":53.1606,"RA_OF_ASC_NODE":39.9032,"ARG_OF_PERICENTER":60.4269,"MEAN_ANOMALY":299.6881,"EPHEMERIS_TYPE":0,"CLASSIFICATION_TYPE":"U","NORAD_CAT_ID":64491,"ELEMENT_SET_NO":999,"REV_AT_EPOCH":4370,"BSTAR":0.00076512,"MEAN_MOTION_DOT":0.00022366,"MEAN_MOTION_DDOT":0},{"OBJECT_NAME":"STARLINK-34522","OBJECT_ID":"2025-133W","EPOCH":"2026-03-26T05:58:55.479072","MEAN_MOTION":15.30214071,"ECCENTRICITY":8.54e-5,"INCLINATION":53.1605,"RA_OF_ASC_NODE":39.8838,"ARG_OF_PERICENTER":97.6134,"MEAN_ANOMALY":262.4963,"EPHEMERIS_TYPE":0,"CLASSIFICATION_TYPE":"U","NORAD_CAT_ID":64492,"ELEMENT_SET_NO":999,"REV_AT_EPOCH":4372,"BSTAR":0.0007787,"MEAN_MOTION_DOT":0.00022784,"MEAN_MOTION_DDOT":0},{"OBJECT_NAME":"STARLINK-34462","OBJECT_ID":"2025-133X","EPOCH":"2026-03-26T05:54:22.004928","MEAN_MOTION":15.30211895,"ECCENTRICITY":0.0001546,"INCLINATION":53.1608,"RA_OF_ASC_NODE":39.8654,"ARG_OF_PERICENTER":66.7518,"MEAN_ANOMALY":293.3645,"EPHEMERIS_TYPE":0,"CLASSIFICATION_TYPE":"U","NORAD_CAT_ID":64493,"ELEMENT_SET_NO":999,"REV_AT_EPOCH":4372,"BSTAR":0.00048316,"MEAN_MOTION_DOT":0.00013983,"MEAN_MOTION_DDOT":0},{"OBJECT_NAME":"STARLINK-34226","OBJECT_ID":"2025-133Y","EPOCH":"2026-03-26T07:23:51.969696","MEAN_MOTION":15.3024184,"ECCENTRICITY":0.0001391,"INCLINATION":53.1604,"RA_OF_ASC_NODE":39.5423,"ARG_OF_PERICENTER":91.7385,"MEAN_ANOMALY":268.3775,"EPHEMERIS_TYPE":0,"CLASSIFICATION_TYPE":"U","NORAD_CAT_ID":64494,"ELEMENT_SET_NO":999,"REV_AT_EPOCH":4356,"BSTAR":0.00070939,"MEAN_MOTION_DOT":0.00020737,"MEAN_MOTION_DDOT":0}]
